[{"OBJECT_NAME":"OBJECT D","OBJECT_ID":"2022-023D","EPOCH":"2026-03-09T23:24:15.634080","MEAN_MOTION":15.18234448,"ECCENTRICITY":0.01133038,"INCLINATION":63.4606,"RA_OF_ASC_NODE":248.8448,"ARG_OF_PERICENTER":353.4959,"MEAN_ANOMALY":6.4675,"EPHEMERIS_TYPE":0,"CLASSIFICATION_TYPE":"U","NORAD_CAT_ID":51949,"ELEMENT_SET_NO":999,"REV_AT_EPOCH":22265,"BSTAR":0.0002367106,"MEAN_MOTION_DOT":5.513e-5,"MEAN_MOTION_DDOT":0},{"OBJECT_NAME":"STARLINK-34257","OBJECT_ID":"2025-176AD","EPOCH":"2026-03-09T11:57:17.970624","MEAN_MOTION":15.30198763,"ECCENTRICITY":0.00011796,"INCLINATION":53.1593,"RA_OF_ASC_NODE":153.4332,"ARG_OF_PERICENTER":74.8777,"MEAN_ANOMALY":285.2354,"EPHEMERIS_TYPE":0,"CLASSIFICATION_TYPE":"U","NORAD_CAT_ID":65225,"ELEMENT_SET_NO":999,"REV_AT_EPOCH":3303,"BSTAR":0.0010192331,"MEAN_MOTION_DOT":0.00029948,"MEAN_MOTION_DDOT":0}]
